CVR;P-nummer;mainPno;namePno;addressPno;zipcodePno;cityPno;protectedPno;phonePno;emailPno;startdatePno;enddatePno;employeesPno;addresscoPno;industrycodePno;industrydescPno
26686997;1001675851;False;SEVEL SLAGTERI A/S;Hvamvej 23, st. tv.;7500;Holstebro;False;;;24/11 - 1966;31/12 - 2003;5-9;;522200;Slagter- og viktualieforretninger
26686997;1009201935;True;SEVEL SLAGTERI A/S;Søgårdvej 28;7830;Vinderup;False;97448308;sevelslagteri@sevelslagteri.dk;01/01 - 2002;;20-49;;101110;Forarbejdning af svinekød
34619069;1017816078;True;MOESGAARD MEAT 2012 A/S;Naurvej 3A;7500;Holstebro;False;;;18/07 - 2012;;20-49;;101110;Forarbejdning af svinekød
13222495;1000523430;True;DANEPORK A/S;Tørskindvej 19;7183;Randbøl;False;75883866;info@danepork.dk;08/05 - 1989;;100-199;;101110;Forarbejdning af svinekød
13201846;1000519483;True;GLUMSØ SLAGTEHUS APS;Søvej 5;4171;Glumsø;False;57646003;;01/01 - 1989;;20-49;;101110;Forarbejdning af svinekød
38904108;1022802999;True;Hvidebæk Meat ApS;Industrivej 17D;4490;Jerslev Sjælland;False;;;01/09 - 2017;;;;101110;Forarbejdning af svinekød
36686278;1020245014;True;Hvidebæk Slagteri og Pølsefabrik ApS;Industrivej 17D;4490;Jerslev Sjælland;False;;;05/03 - 2015;;50-99;;101110;Forarbejdning af svinekød
21613584;1005064899;True;Grillslagteren ApS;Kirkebyvej 6;7700;Thisted;False;97981777;;19/04 - 1999;;0;Lars Jakobsen;101110;Forarbejdning af svinekød
28717121;1011359872;True;SLAGTER ENGDAHL ApS;Industriparken 10;4960;Holeby;False;;;26/05 - 2005;;5-9;;101110;Forarbejdning af svinekød
28717121;1024017105;False;Pølsemageri;Industriparken 10;4960;Holeby;False;;;01/10 - 2018;;;Slagter Engdahl ApS;101300;Produktion af kød- og fjerkrækødprodukter
30920406;1013712804;True;GRAMBOGÅRD A/S;Ellehaven 55;5690;Tommerup;False;64761577;;10/09 - 2007;;10-19;;101110;Forarbejdning af svinekød
37033960;1020670734;True;HP Production ApS;Naurvej 3A;7500;Holstebro;False;97432326;moesgaard@moesgaard-meat.dk;24/08 - 2015;;20-49;;101110;Forarbejdning af svinekød
27654746;1015938354;False;Vester Hæsinge Slagterforretning ApS;Birkevej 37;5672;Broby;False;62631353;vhslagter@mail.dk;25/03 - 2010;31/12 - 2013;2-4;;472200;Slagter- og viktualieforretninger
27654746;1021177675;False;Vester Hæsinge Slagterforretning ApS;Birkevej 37;5672;Broby;False;62631353;vhslagter@mail.dk;02/02 - 2016;03/02 - 2016;;;463200;Engroshandel med kød og kødprodukter
27654746;1021393130;False;"Ringe Slagter &amp; Delikatesser";Jernbanegade 21;5750;Ringe;False;62631353;vhslagter@mail.dk;20/04 - 2016;31/12 - 2016;5-9;;472200;Slagter- og viktualieforretninger
27654746;1010467043;True;VESTER HÆSINGE SLAGTERFORRETNING ApS;Birkevej 37;5672;Broby;False;62631353;vhslagter@mail.dk;22/03 - 2004;;10-19;;101110;Forarbejdning af svinekød
16523844;1001113788;True;INCO SVENDBORG SLAGTEHUS A/S;Porthusvej 75;5700;Svendborg;False;62213278;;01/10 - 1992;;20-49;;101110;Forarbejdning af svinekød
37144789;1020799249;True;Hårby Slagteren IVS;Den Grønne Vej 1;8660;Skanderborg;True;86523010;hs-slagteri@hotmail.dk;08/10 - 2015;;20-49;;101110;Forarbejdning af svinekød
26121264;1016497297;False;Danish Crown A/S;Viddingherredsgade 26;6270;Tønder;False;89191919;dc@danishcrown.dk;10/12 - 2010;31/12 - 2016;0;;101190;Forarbejdning af andet kød
26121264;1021759607;False;Danish Crown A/S;Tulipvej 10;7100;Vejle;False;;;01/10 - 2016;30/11 - 2017;2-4;;101110;Forarbejdning af svinekød
26121264;1021753617;False;Danish Crown A/S;Skt. Knuds Torv 7-9;8000;Aarhus C;False;89191919;;15/09 - 2016;31/12 - 2017;0;;101110;Forarbejdning af svinekød
26121264;1016497416;False;Danish Crown A/S;Nygade 48;6900;Skjern;False;89191919;dc@danishcrown.dk;10/12 - 2010;31/12 - 2014;0;;101190;Forarbejdning af andet kød
26121264;1016497181;False;Danish Crown A/S;Østre Alle 4;9560;Hadsund;False;89191919;dc@danishcrown.dk;10/12 - 2010;31/12 - 2013;20-49;;101110;Forarbejdning af svinekød
26121264;1016497084;False;Danish Crown A/S;Vendersgade 40;7500;Holstebro;False;89191919;dc@danishcrown.dk;10/12 - 2010;31/12 - 2013;10-19;;101190;Forarbejdning af andet kød
26121264;1016497203;False;Danish Crown A/S;Vendersgade 6;7500;Holstebro;False;89191919;dc@danishcrown.dk;10/12 - 2010;31/12 - 2014;0;;101190;Forarbejdning af andet kød
26121264;1016497467;False;Danish Crown A/S;Vendersgade 23-25;7500;Holstebro;False;89191919;dc@danishcrown.dk;10/12 - 2010;31/12 - 2014;1;;101110;Forarbejdning af svinekød
26121264;1016497491;False;Danish Crown A/S;Brårupgade 11;7800;Skive;False;89191919;dc@danishcrown.dk;10/12 - 2010;11/11 - 2014;0;;101110;Forarbejdning af svinekød
26121264;1016519975;False;Danish Crown A/S;Gl Hygumvej 5;6630;Rødding;False;89191919;dc@danishcrown.dk;20/12 - 2010;05/01 - 2012;0;;101110;Forarbejdning af svinekød
26121264;1016497289;False;DANISH CROWN A/S;Gammelby Ringvej 1;6700;Esbjerg;False;89191919;dc@danishcrown.dk;10/12 - 2010;31/12 - 2014;1;;101110;Forarbejdning af svinekød
26121264;1018235591;False;ESS-FOOD;Kirkebjerg Parkvej 9;2605;Brøndby;False;;;31/01 - 2013;31/10 - 2014;1;;101110;Forarbejdning af svinekød
26121264;1016497254;False;Danish Crown A/S;Ndr. Havnevej 1;6000;Kolding;False;89191919;dc@danishcrown.dk;10/12 - 2010;;5-9;;101110;Forarbejdning af svinekød
26121264;1016458771;False;Danish Crown A/S;Havnegade 5;5600;Faaborg;False;89191919;;22/11 - 2010;;1;;101110;Forarbejdning af svinekød
26121264;1019250810;False;ESS-Food;Kirkebjerg Parkvej 9;2605;Brøndby;False;;;01/01 - 2013;;2-4;;101110;Forarbejdning af svinekød
26121264;1019812223;False;Danish Crown A/S;Flæsketorvet 41;1711;København V;False;89191919;hekn@danishcrown.dk;01/06 - 2014;;5-9;;101110;Forarbejdning af svinekød
26121264;1018525875;False;Danish Crown A/S OD Holsted;Energivej 5-7;6670;Holsted;False;;GTH@danishcrown.dk;30/05 - 2013;;100-199;;101190;Forarbejdning af andet kød
26121264;1016497173;False;Danish Crown A/S;Åbenråvej 11;6780;Skærbæk;False;89191919;dc@danishcrown.dk;10/12 - 2010;;50-99;;101110;Forarbejdning af svinekød
26121264;1016497114;False;Danish Crown A/S;Erhvervsparken 2;7280;Sønder Felding;False;89191919;dc@danishcrown.dk;10/12 - 2010;;50-99;;101190;Forarbejdning af andet kød
26121264;1018525883;False;Danish Crown A/S SD Holsted;Energivej 5-7;6670;Holsted;False;;;30/05 - 2013;;5-9;;101110;Forarbejdning af svinekød
26121264;1018775839;False;Holsted Produktion;Grindstedvej 2;6670;Holsted;False;;;25/09 - 2013;;200-499;;101190;Forarbejdning af andet kød
26121264;1016497092;False;Danish Crown A/S;Svanningevej 1;9220;Aalborg Øst;False;89191919;dc@danishcrown.dk;10/12 - 2010;;100-199;;101190;Forarbejdning af andet kød
26121264;1017997676;False;Danish Crown A/S;Tulipvej 1;8940;Randers SV;False;;;15/10 - 2012;;50-99;;101110;Forarbejdning af svinekød
26121264;1016497483;False;Danish Crown A/S;Østbirkvej 2;8700;Horsens;False;89191919;dc@danishcrown.dk;10/12 - 2010;;1000-999999;;101110;Forarbejdning af svinekød
26121264;1016497157;False;Danish Crown A/S;Wenbovej 9;9300;Sæby;False;89191919;dc@danishcrown.dk;10/12 - 2010;;500-999;;101110;Forarbejdning af svinekød
26121264;1016497149;False;Danish Crown A/S;Bragesvej 18;4100;Ringsted;False;89191919;dc@danishcrown.dk;10/12 - 2010;;500-999;;101110;Forarbejdning af svinekød
26121264;1016458798;False;Danish Crown A/S;Haslevej 19;3700;Rønne;False;89191919;;22/11 - 2010;;100-199;;101110;Forarbejdning af svinekød
26121264;1016459085;False;Danish Crown A/S;Danmarksgade 22;7400;Herning;False;89191919;dc@danishcrown.dk;22/11 - 2010;;500-999;;101110;Forarbejdning af svinekød
26121264;1016497165;False;Danish Crown A/S;Langbro 7;6400;Sønderborg;False;89191919;dc@danishcrown.dk;10/12 - 2010;;1000-999999;;101110;Forarbejdning af svinekød
26121264;1008535716;True;DANISH CROWN A/S;Marsvej 43;8960;Randers SØ;False;89191919;gth@danishcrown.dki;01/07 - 2001;;500-999;;101110;Forarbejdning af svinekød
26121264;1023432966;False;DANISH CROWN A/S;Gammelby Ringvej 1;6700;Esbjerg;True;89191223;sumi@danishcrown.dk;14/09 - 2017;;2-4;;101110;Forarbejdning af svinekød
26121264;1016511869;False;Danish Crown A/S;Danmarksgade 22;7400;Herning;False;89191919;dc@danishcrown.dk;16/12 - 2010;;2-4;;101190;Forarbejdning af andet kød
26121264;1023342525;False;Group Procurement;Engelsholmvej 28;8940;Randers SV;False;89191123;sumi@danishcrown.dk;01/10 - 2017;;1;;101110;Forarbejdning af svinekød
26786576;1017119059;False;TICAN FRESH MEAT ANSAGER A/S;Åvænget 9;6823;Ansager;False;99192330;tican@tican.dk;14/09 - 2011;31/12 - 2018;0;;101110;Forarbejdning af svinekød
26786576;1011140358;False;TICAN PROCES A/S;Åvænget 9;6823;Ansager;False;;;16/02 - 2005;16/02 - 2005;;;151390;Kødforarbejdning i øvrigt
26786576;1017119032;False;TICAN FRESH MEAT FJERRITSLEV A/S;Grønnegade 21;9690;Fjerritslev;False;99192330;tican@tican.dk;14/09 - 2011;31/10 - 2019;0;;101110;Forarbejdning af svinekød
26786576;1017119075;False;TICAN FRESH MEAT VEJLE A/S;Skomagervej 11C;7100;Vejle;False;99192330;TICAN@TICAN.DK;14/09 - 2011;31/10 - 2019;2-4;;101110;Forarbejdning af svinekød
26786576;1009320225;True;TICAN FRESH MEAT THISTED A/S;Strandvejen 6;7700;Thisted;False;99192300;TICAN@TICAN.DK;18/09 - 2002;;500-999;;101110;Forarbejdning af svinekød
26786576;1024192039;False;Tican Fresh Meat A/S, Brørup;Markedsvej 9;6650;Brørup;True;99192300;tican@tican.dk;01/01 - 2019;;200-499;;101110;Forarbejdning af svinekød
39547430;1023591738;True;Jensen's Slagtehus ApS;Rigtrupvej 44;8370;Hadsten;True;86491416;information@jensens-slagtehus.dk;07/05 - 2018;;;;101110;Forarbejdning af svinekød
14641998;1000777366;True;HØVE SLAGTERI;Høvevej 65;4550;Asnæs;False;;;01/11 - 1990;;0;Slagtermester Jan Lund;101110;Forarbejdning af svinekød
14641998;1013560656;False;Høve Slagteri Kød Engros;Høvevej 65;4550;Asnæs;False;;;28/08 - 2007;;0;;101110;Forarbejdning af svinekød
41280158;1025719774;True;Slagter Kristian Sand Olesen;Brandevej 24;7430;Ikast;True;;ks.olesen@hotmail.com;13/04 - 2020;;;;101110;Forarbejdning af svinekød
21942677;1006345209;True;Jensens Slagtehus Morten Enggrob Jensen;Rigtrupvej 44;8370;Hadsten;False;;information@jensens-slagtehus.dk;01/09 - 1999;;2-4;;101110;Forarbejdning af svinekød
28649398;1011531276;True;Smedegård v/ John Kristian Jensen;Kytterupvej 11;6990;Ulfborg;False;;;18/07 - 2005;;0;;101110;Forarbejdning af svinekød
36590696;1020368930;True;Sæby Gårdslagteri I/S;Ålborgvej 108;9300;Sæby;True;60443804;kontakt@saebygaardslagteri.dk;01/05 - 2015;;0;;101110;Forarbejdning af svinekød
40690484;1024912236;True;Den tørrede gris;St. Ladegårdsvej 8;4180;Sorø;True;23262216;Skovgrisen@gmail.com;08/08 - 2019;;;Niels Bjerregård Pedersen;101110;Forarbejdning af svinekød
38119362;1021863153;True;Riberholdt Consulting;Hvalfisken 11;7500;Holstebro;True;30142120;idomlund@gmail.com;19/10 - 2016;;0;;101110;Forarbejdning af svinekød
30267699;1013067070;True;Ulfborg Slagteri v/Per O Nielsen;Industriarealet 40;6990;Ulfborg;False;97492200;;01/04 - 2007;;1;;101110;Forarbejdning af svinekød
35909737;1019567547;True;Ømands I/S;Sønder Vilstrup Bygade 1B;6100;Haderslev;False;;aungstrup@gmail.com;18/07 - 2014;;0;;101110;Forarbejdning af svinekød
32572154;1015694293;True;Hjemmeslagter Martin Jørgensen;Harres 4;6261;Bredebro;False;73710044;martinhjemmeslagter@sol.dk;01/12 - 2009;;0;;101110;Forarbejdning af svinekød
27302165;1010043448;True;Grenaa Slagtehus I/S v/Tage Sehested Severinsen og Peder Bertelsen;Tempovej 18;8500;Grenaa;False;86327032;mail@grenaaslagtehus.dk;01/09 - 2003;;5-9;Peder Bertelsen;101110;Forarbejdning af svinekød
35696032;1019284944;True;Concepcion Pimentel Schallert;Auningvej 3;8963;Auning;True;;concepcionp3@rougsoes.net;01/01 - 2014;;0;;101110;Forarbejdning af svinekød
26669170;1009181136;True;Selskabet af 01.01.2002 ApS;Industrivej 17D;4490;Jerslev Sjælland;False;59596200;berit@hvidebaek-slagteri.dk;01/01 - 2002;;2-4;;101110;Forarbejdning af svinekød
30647653;1023017551;False;Sties Multiservice;Koldingvej 27;4200;Slagelse;True;;leslie.stie@gmail.com;01/11 - 2017;08/08 - 2018;;;101110;Forarbejdning af svinekød
30647653;1019390442;False;LS Service v/Leslie Stie;Kierulffsvej 36, 03. th.;4200;Slagelse;True;21722212;leslie.stie@gmail.com;01/06 - 2014;28/02 - 2015;;Leslie Stie;773200;Udlejning og leasing af entreprenørmateriel
30647653;1013462506;False;LS-Montage /Leslie Helleskov Stie;Koldingvej 27;4200;Slagelse;False;21722212;;01/06 - 2007;30/06 - 2011;;;952900;Reparation af andre varer til personligt brug og husholdningsbrug
30647653;1026253132;False;Råmose Friland;Nyrupvej 2;4200;Slagelse;True;;raamosefriland@outlook.dk;01/08 - 2020;;;;14620;Produktion af slagtesvin
28364733;1011142113;False;Brian Hald Thrane;Puggårdsvej 76;6771;Gredstedbro;False;;;21/02 - 2005;15/09 - 2006;;;151390;Kødforarbejdning i øvrigt
28364733;1014894620;True;Mobil Hjemmeslagt v/Brian Hald Thrane;Stationsvej 8;6600;Vejen;False;42390960;;01/12 - 2008;31/12 - 2012;;;101110;Forarbejdning af svinekød
35765417;1019379384;True;Håsum Chacuteri;Landevejen 28;7860;Spøttrup;False;;ulriklajgaard@gmail.com;02/05 - 2014;31/05 - 2015;;Ulrik Lajgaard;101110;Forarbejdning af svinekød
35099417;1018534998;True;Sindal Slagtehus;Nejstvej 99;9870;Sindal;False;;info@sindalslagtehus.dk;01/07 - 2013;31/12 - 2017;0;;101110;Forarbejdning af svinekød
16860808;1001173232;True;CARL HERSE;Rævekærvej 4;6230;Rødekro;False;74698121;;01/04 - 1993;30/06 - 2009;0;;101110;Forarbejdning af svinekød
25006267;1007206433;True;Hvam Slagterhus I/S;Gl. Viborgvej 86;9620;Aalestrup;False;98648003;;11/10 - 1999;19/11 - 2017;2-4;;101110;Forarbejdning af svinekød
38998455;1001774748;True;AIDT SLAGTEHUS V/DANNIE TOM JØRGENSEN;Bavnehøjvej 1;8881;Thorsø;False;86966943;;01/02 - 1987;31/12 - 2010;0;;101110;Forarbejdning af svinekød
30475135;1013368976;True;Jørgen Olsen;Elmekrogen 4;3200;Helsinge;False;21629620;jio@postil.tele.dk;01/08 - 2007;31/12 - 2009;;;101110;Forarbejdning af svinekød
13069948;1005556856;False;HANDELSFIRMA TONI ABRAHAMSEN; 4;9999;Ukendt;False;;;01/04 - 1985;31/01 - 1998;;;980000;Uoplyst
13069948;1004399491;True;Tonis Slagterhus v/Toni Abrahamsen;Stenagervej 4;6240;Løgumkloster;True;;;01/02 - 1998;28/02 - 2018;2-4;;101110;Forarbejdning af svinekød
32792162;1015952039;True;Norwest Foods International ltd;Nygade 5-7;9760;Vrå;False;96248500;ces@d-m-c.dk;06/04 - 2010;30/09 - 2010;;Danish Meat CompanyA/S C.Sørensen;101110;Forarbejdning af svinekød
33432550;1016689706;True;KS Kød I/S;Hvamvej 23;7500;Holstebro;False;40102617;;01/04 - 2011;30/09 - 2012;0;;101110;Forarbejdning af svinekød
15085681;1005700071;True;SLAGTERISELSKABET DANISH CROWN AMBA SVINEDIVISION NORD;Østergade 8;8850;Bjerringbro;False;;;01/04 - 1991;06/07 - 2010;;;101110;Forarbejdning af svinekød
25208897;1021329831;True;Morsø Slagteri;Food Parken 3;7900;Nykøbing M;False;;;25/02 - 2016;23/03 - 2018;0;;101110;Forarbejdning af svinekød
25208897;1007423191;False;Hanen;Slettestrandvej 148;9690;Fjerritslev;False;97769799;morsslh@gmail.com;15/02 - 2000;01/08 - 2014;2-4;;561010;Restauranter
25208897;1014765960;False;Strandcafeen;Slettestrandvej 148;9690;Fjerritslev;False;97769799;morsslh@gmail.com;30/09 - 2008;01/08 - 2014;0;;561010;Restauranter
25208897;1017153648;False;Morsø Slagteri;Food Parken 3;7900;Nykøbing M;False;97769799;morsslh@gmail.com;27/09 - 2011;18/02 - 2016;0;Østergade 63 9690 Fjerritslev;561010;Restauranter
35786171;1019468786;True;Sæby Gårdslagteri;Hasselvej 2;9300;Sæby;False;60443804;logt@email.dk;01/06 - 2014;30/06 - 2020;0;;101110;Forarbejdning af svinekød
29139725;1011751179;True;DANISH MEAT COMPANY A/S;Nygade 5-7;9760;Vrå;False;96248500;lunden@asdal.dk;12/10 - 2005;11/12 - 2012;100-199;;101110;Forarbejdning af svinekød
10130816;1009669333;True;MORSØ SLAGTERI OG KØDENGROS ApS;Food Parken 3;7900;Nykøbing M;False;97720074;;31/01 - 2003;03/07 - 2013;10-19;;101110;Forarbejdning af svinekød
32664601;1015740449;True;AKTIESELSKABET AF 28. DECEMBER 2009;Store Kongensgade 69;1264;København K;False;;;28/12 - 2009;22/06 - 2012;;"Mazanti-Andersen, Korsø Jensen &amp; Partner";101110;Forarbejdning af svinekød
31067693;1013797621;True;VESTFYENS SLAGTEHUS ApS;Industrivej 2;5592;Ejby;False;86255256;;22/11 - 2007;26/04 - 2012;;;101110;Forarbejdning af svinekød
14417176;1000739803;True;GUDME PRIVATSLAGTERI ApS;Teglværksvej 89;5884;Gudme;False;62251081;johnf@nielsen.mail.dk;01/08 - 1990;11/07 - 2017;1;;101110;Forarbejdning af svinekød
20958472;1003029226;True;SKOVGAARD'S SLAGTERI OG KØDOPSKÆRING A/S;Industrivej 7;5750;Ringe;False;62621096;;02/09 - 1968;16/11 - 2012;0;;101110;Forarbejdning af svinekød
20958472;1006234479;False;SKOVGAARD'S SLAGTERI OG KØDOPSKÆRING A/S; 7;9999;Ukendt;False;;;17/06 - 1998;31/07 - 1998;;;980000;Uoplyst
30812271;1013568673;True;MOESGAARD MEAT A/S;Naurvej 17;7500;Holstebro;False;97432326;;24/08 - 2007;16/11 - 2015;0;;101110;Forarbejdning af svinekød
10112613;1009643466;True;TAGMOSES SLAGTEHUS, TISTRUP ApS;Frejasvej 13;6862;Tistrup;False;75292172;;01/01 - 2003;21/12 - 2009;5-9;;101110;Forarbejdning af svinekød
86555816;1009405875;False;SKARRESØ PRIVATSLAGTERI A/S;Holbækvej 328;4440;Mørkøv;False;;;01/01 - 2001;01/05 - 2005;0;;513200;Engroshandel med kød og kødprodukter
86555816;1003215414;True;SKARRESØ PRIVATSLAGTERI A/S;Bødkervej 1;4450;Jyderup;False;59277200;;01/10 - 1992;19/06 - 2014;0;;101110;Forarbejdning af svinekød
86555816;1006910360;False;SKARRESØ PRIVATSLAGTERI A/S; 328;9999;Ukendt;False;;;22/06 - 1979;30/09 - 1992;;;980000;Uoplyst
29148287;1011779049;False;JUTLAND MEAT A/S;Havnevej 8;7600;Struer;False;;;25/10 - 2005;26/10 - 2005;;;151110;Svineslagterier
29148287;1003030417;True;JUTLAND MEAT A/S;Havnevej 8;7600;Struer;False;96843500;;10/02 - 2000;18/10 - 2019;0;;101110;Forarbejdning af svinekød
31279585;1014251061;True;HÅRBY SLAGTEHUS ApS;Den Grønne Vej 1;8660;Skanderborg;False;;;29/02 - 2008;16/04 - 2019;0;;101110;Forarbejdning af svinekød
34734496;1018059041;True;DANISH MEAT COMPANY, VRAA A/S;Nygade 5-7;9760;Vrå;False;;;13/11 - 2012;14/08 - 2018;2-4;;101110;Forarbejdning af svinekød
31279844;1014251398;True;H. S. SLAGTERI, SKANDERBORG ApS;Den Grønne Vej 1;8660;Skanderborg;False;;;29/02 - 2008;21/12 - 2015;20-49;;101110;Forarbejdning af svinekød
25322894;1007560059;True;NORDKØD ApS;Harløsevej 224;3400;Hillerød;False;48210417;;01/04 - 2000;14/06 - 2016;0;;101110;Forarbejdning af svinekød
21239372;1004790754;True;VOERLADEGAARD SLAGER A/S;Holmedal 28;8660;Skanderborg;False;75782040;;01/10 - 1998;26/08 - 2010;0;;101110;Forarbejdning af svinekød
25022173;1007225314;True;EJENDOMSSELSKABET LASK ApS;Munkhulevej 5;6990;Ulfborg;False;;;11/11 - 1999;28/10 - 2009;1;Lars Andersen;101110;Forarbejdning af svinekød
45613410;1009575495;False;DAKA A.M.B.A.;Viumvej 20;7870;Roslev;False;;;01/01 - 2002;31/01 - 2007;1;;151140;Destruktionsanstalter og benmelsfabrikker
45613410;1008483341;False;Kødfoderfabrikken Østjyden;Vesterhede 1;6950;Ringkøbing;False;;;01/01 - 2000;31/12 - 2001;1;;151390;Kødforarbejdning i øvrigt
45613410;1008483384;False;Daka A.M.B.A.;Rørsangervænget 25;5610;Assens;False;;;01/01 - 2000;31/12 - 2001;0;;151390;Kødforarbejdning i øvrigt
45613410;1010109481;False;DAKA A.M.B.A.;Vesterhede 4;6950;Ringkøbing;False;;;01/01 - 2002;31/01 - 2007;1;;151140;Destruktionsanstalter og benmelsfabrikker
45613410;1018202847;False;Daka Proteins Lunderskov;Dakavej 12;6640;Lunderskov;False;76745111;jhb@kromannreumert.com;17/01 - 2013;17/01 - 2013;;;101110;Forarbejdning af svinekød
45613410;1018202898;False;Daka Proteins Nyker;Buldregårdsvej 2;3700;Rønne;False;76745111;jhb@kromannreumert.com;17/01 - 2013;17/01 - 2013;;;101110;Forarbejdning af svinekød
45613410;1018202863;False;Daka Bio-Industries Ortved;Hejdesvej 23;4100;Ringsted;False;76745111;jhb@kromannreumert.com;17/01 - 2013;17/01 - 2013;;;101110;Forarbejdning af svinekød
45613410;1018205277;False;Daka Bio-Industries Randers;Kronjydevej 8;8960;Randers SØ;False;87959222;;17/01 - 2013;17/01 - 2013;;;101110;Forarbejdning af svinekød
45613410;1003084737;False;DAKA A.M.B.A.;Laurits Hauges Vej 3;9400;Nørresundby;False;;;01/01 - 1988;31/12 - 1999;;;151390;Kødforarbejdning i øvrigt
45613410;1003084695;False;DAKA A.M.B.A.;Viumvej 22;7870;Roslev;False;;;01/01 - 1988;30/09 - 2002;1;;151390;Kødforarbejdning i øvrigt
45613410;1003174303;False;DAKA A.M.B.A.;Hejdesvej 23;4100;Ringsted;False;57528132;;01/01 - 1987;30/06 - 2012;0;;101110;Forarbejdning af svinekød
45613410;1003084683;True;ANDELSSELSKABET AF 2. JULI 2012;Dakavej 10;8723;Løsning;False;76745111;;02/10 - 1972;31/01 - 2014;0;;101110;Forarbejdning af svinekød
45613410;1009096465;False;DAKA A.M.B.A;Buldregårdsvej 2;3700;Rønne;False;56963266;;13/05 - 2002;13/05 - 2002;;Nyker;151390;Kødforarbejdning i øvrigt
45613410;1003084713;False;DAKA A.M.B.A.;Kronjydevej 8;8960;Randers SØ;False;87959222;;01/01 - 1988;30/06 - 2012;0;;101110;Forarbejdning af svinekød
37172855;1020831398;True;XYÅ af 30.12.2018 A/S;Brunagervej 1;8361;Hasselager;False;;;09/10 - 2015;26/03 - 2020;;;101110;Forarbejdning af svinekød
70243016;1004836247;False;STEFF-HOULBERG SLAGTERIERNE AMBA BRØNDBY AFD. P.O. BOKS 272;Kirkebjerg Parkvej 9;2605;Brøndby;False;43428993;;01/01 - 1999;31/03 - 2000;0;;151390;Kødforarbejdning i øvrigt
70243016;1008239130;False;Steff-Houlberg Slagterierne Landsby-Slagteren;Erhvervsparken 2;7280;Sønder Felding;False;;;01/01 - 2000;01/01 - 2000;;;151390;Kødforarbejdning i øvrigt
70243016;1008757549;False;STEFF-HOULBERG A.M.B.A. POSTBOKS 120;Bragesvej 18;4100;Ringsted;False;57616263;;01/01 - 2002;01/01 - 2002;;;151390;Kødforarbejdning i øvrigt
70243016;1007953549;False;STEFF-FOOD A/S;Hørskætten 3;2630;Taastrup;False;;;01/10 - 1999;31/12 - 1999;5-9;;151110;Svineslagterier
70243016;1003174340;False;STEFF-HOULBERG SLAGTERIERNE FORÆDLINGSAFD.;Roskildevej 12;3600;Frederikssund;False;47316165;;22/11 - 1976;31/03 - 2000;2-4;;151390;Kødforarbejdning i øvrigt
70243016;1003174431;False;STEFF-HOULBERG SLAGTERIERNE DEMONSTRATRICER;UKENDT;;;False;;;01/01 - 1993;01/01 - 1993;5-9;;151110;Svineslagterier
70243016;1009221650;True;STEFF-HOULBERG A.M.B.A.;Marsvej 43;8960;Randers SØ;False;;;19/07 - 2002;08/09 - 2009;;DANISH CROWN AmbA;101110;Forarbejdning af svinekød
62011513;1003147838;True;SB PORK A/S;Markedsvej 9;6650;Brørup;False;75381433;;01/01 - 1991;08/01 - 2019;200-499;;101110;Forarbejdning af svinekød
62011513;1006692502;False;SLAGTERIET BRØRUP A/S; 10;9999;Ukendt;False;;;11/08 - 1980;31/12 - 1990;;;980000;Uoplyst
