CVR;P-nummer;mainPno;namePno;addressPno;zipcodePno;cityPno;protectedPno;phonePno;emailPno;startdatePno;enddatePno;employeesPno;addresscoPno;industrycodePno;industrydescPno
38700839;1022513474;True;Egegaard;Randersvej 245;8450;Hammel;True;;Staldegegaard@gmail.com;12/06 - 2017;;2-4;;14610;Avl af smågrise
10866936;1011809371;True;Havreballegård Peder Sølvsten;Horsensvej 44;8660;Skanderborg;False;86579377;;01/10 - 2005;;5-9;;14610;Avl af smågrise
34364826;1017543055;True;Avlscenter Trekanten I/S;Kongstedvej 48;7000;Fredericia;False;75954035;kai.skou@hansen.mail.dk;01/01 - 2012;;20-49;;14610;Avl af smågrise
26290953;1002281922;True;Balleholm v/Jesper Pilegaard;Rishøjvej 3;4000;Roskilde;False;46402287;balleholm@mail.dk;01/07 - 2001;;5-9;;14610;Avl af smågrise
27775640;1010613821;True;Eskild Stauning Hansen;Skovsbjergvej 5A;6520;Toftlund;False;74830108;;01/07 - 2004;;5-9;;14610;Avl af smågrise
28923384;1002848752;True;Sørensen I/S v/Jørgen K Sørensen og Daniel N Sørensen;Lindvedvej 58;8723;Løsning;False;75893376;;01/04 - 1982;;2-4;;14610;Avl af smågrise
18826240;1003574338;True;ANDERS COUPPE';Kongevej 16;4450;Jyderup;False;58250186;;01/11 - 1995;;5-9;Nyvangsgård;14610;Avl af smågrise
34758484;1018155709;True;Rasmus Olesen;Bleldvej 85;8700;Horsens;True;20942766;hrrasmusolesen@hotmail.com;14/12 - 2012;;2-4;;14610;Avl af smågrise
35558713;1019024543;True;Kim Langgaard Jensen;Hindselsvej 6;7790;Thyholm;False;26205131;;01/01 - 2014;;0;;14610;Avl af smågrise
19364798;1003785059;True;LANDMAND POUL GRØNTVED;Tvedenvej 10;9300;Sæby;False;40165062;jptveden@gmail.com;01/07 - 1996;;5-9;;14610;Avl af smågrise
21860808;1005265359;True;OLE SANDGRAV;Gudumlundvej 16;7620;Lemvig;False;97863637;;02/08 - 1999;;5-9;;14610;Avl af smågrise
27251986;1009982708;True;Povl Søren Skøtt;Hvinderupvej 3;6070;Christiansfeld;False;74561220;;01/07 - 2003;;2-4;;14610;Avl af smågrise
25925815;1008312970;True;Bøgely v/Per Rosenkrantz Fuglsang;Sinding Hedevej 85;8600;Silkeborg;False;86856545;;15/03 - 2001;;5-9;;14610;Avl af smågrise
25896777;1008279000;True;Peter Friedrichsen;Felstedvej 39;6300;Gråsten;False;74686912;;01/02 - 2001;;5-9;;14610;Avl af smågrise
74703518;1002437892;True;MARIUS HØGH POULSEN;Sdr. Egsgårdvej 10;7323;Give;False;75344072;;22/10 - 1982;;1;Ny Egsgård;14610;Avl af smågrise
25858549;1001464145;True;Peter Filip Juul;Bredstrupvej 75;7000;Fredericia;False;75954029;;01/01 - 2001;;2-4;;14610;Avl af smågrise
69898912;1006749823;False;KAJ MUNCK; 4;9999;Ukendt;False;;;11/06 - 1981;31/05 - 1988;;;980000;Uoplyst
69898912;1002308709;True;KAJ MUNCK;Tornemarksvej 4;4640;Faxe;False;56725180;;01/06 - 1988;;2-4;;14610;Avl af smågrise
21749877;1005172436;True;GL NEJST V/KLAUS DAM;Kraghedevej 9;9382;Tylstrup;False;98261522;;01/07 - 1999;;2-4;;14610;Avl af smågrise
13058903;1000492452;True;FINN TUKJÆR SCHMIDT;Sønderdalvej 8;8765;Klovborg;False;75761304;;01/05 - 1989;;5-9;;14610;Avl af smågrise
28195869;1011010772;True;Steen Søby Laursen;Toftevej 1;9800;Hjørring;False;;;01/01 - 2005;;2-4;;14610;Avl af smågrise
29274991;1012032508;True;"I/S Jens &amp; Anders Christensen /v Jens Christensen og Anders Christensen";Hjørringvej 285;9750;Østervrå;False;98956013;;01/01 - 2006;;5-9;;14610;Avl af smågrise
29263191;1012015867;True;Poul Nørgaard Blaabjerg;Fårtoftvej 16;7950;Erslev;False;97741415;;01/01 - 2006;;5-9;;14610;Avl af smågrise
17090291;1001220214;True;KARSTEN ANDERSEN;Randersvej 122;8670;Låsby;False;86951247;;15/07 - 1993;;2-4;;14610;Avl af smågrise
21882771;1006320786;True;LANDBRUG V/CHRISTINA V. NIELSEN;Prinsehøjsvej 4;5610;Assens;False;;;01/08 - 1999;;2-4;;14610;Avl af smågrise
29292728;1007850685;True;Bygholtgård v/ Carsten Vestergaard Keseler;Bøllingvej 28;6064;Jordrup;False;21242499;keseler@c.dk;01/08 - 2000;;2-4;;14610;Avl af smågrise
79328014;1002578559;True;GÅRDEJER VERNER PEDERSEN;Hedeagervej 27;8882;Fårvang;False;86871062;;01/11 - 1985;;2-4;;14610;Avl af smågrise
11558135;1000255964;True;KURT LARSEN;Sorøvej 49;4250;Fuglebjerg;False;55453294;;16/07 - 1969;;0;;14610;Avl af smågrise
19390330;1003795429;True;PER MADSEN;Gravvængevej 30;5882;Vejstrup;False;62232226;;01/08 - 1996;;0;;14610;Avl af smågrise
73534453;1002405276;True;GÅRDEJER JENS CHRISTIAN SCHMIDT;Kyringevej 101;4100;Ringsted;False;57803352;;01/09 - 1976;;0;;14610;Avl af smågrise
89713617;1006937340;False;LANDMAND JENS SIMONI; 5;9999;Ukendt;False;;;22/08 - 1966;02/07 - 1967;;;980000;Uoplyst
89713617;1002825006;True;LANDMAND JENS SIMONI;Skovmarkvej 5;9382;Tylstrup;False;98261559;;03/07 - 1967;;0;;14610;Avl af smågrise
83450312;1002671150;True;HANS JØRGEN M JENSEN;Bjørnbækvej 3;9320;Hjallerup;False;98281914;;01/02 - 1978;;0;;14610;Avl af smågrise
27858864;1000431344;True;Dalhus v/Keld Hjort;Tudvadvej 34;7100;Vejle;False;;;01/09 - 1988;;2-4;;14610;Avl af smågrise
16184845;1001050705;True;GDR. ERIK BIRKKJÆR;Horslundvej 10;7550;Sørvad;False;97438517;;01/07 - 1992;;1;;14610;Avl af smågrise
77878513;1002532497;True;THOMAS JEPSEN;Oksbøl Nørregade 1;6430;Nordborg;False;74450969;;01/05 - 1976;;5-9;;14610;Avl af smågrise
14602003;1005665838;False;FLEMMING DAMGAARD; 8;9999;Ukendt;False;;;01/10 - 1990;31/12 - 1998;;;980000;Uoplyst
14602003;1001251494;True;FLEMMING DAMGAARD;Nørgårdsvej 8;7570;Vemb;False;97481930;;01/05 - 1993;;2-4;;14610;Avl af smågrise
14455078;1000746937;True;GÅRDEJER ANDERS HINDKJÆR ØRTS;Hindkjærvej 1;7500;Holstebro;False;97461323;;01/07 - 1990;;2-4;;14610;Avl af smågrise
20081244;1004122088;True;BRANDMOSEGÅRD/POUL ERIK JEPPESEN;Vivsøvej 4;7800;Skive;False;97544222;;15/06 - 1997;;10-19;;14610;Avl af smågrise
12294190;1000364521;True;JENS AKSEL FRIIS FÆDRESMINDE;Svanemosevej 4;6580;Vamdrup;False;75594304;;01/04 - 1988;;2-4;;14610;Avl af smågrise
35768807;1019369672;True;Svend Gammelgård;Halkvej 174;6100;Haderslev;False;74571298;age@slf.dk;01/05 - 2014;;5-9;;14610;Avl af smågrise
35504532;1019014483;True;Lundbechlund Smågriseproduktion I/S;Langbjergvej 8;7140;Stouby;False;61367364;henrik@pilegaard-landbrug.dk;01/01 - 2014;;2-4;;14610;Avl af smågrise
17475878;1019426722;False;Kokkenborg Polteanneks;Hovedvejen 77;5771;Stenstrup;False;23718115;dorte@slaebaekgaard.dk;01/06 - 2014;01/04 - 2019;1;;14610;Avl af smågrise
17475878;1021990872;False;Pilemosegaard;Stenoddenvej 6;5700;Svendborg;True;23718115;dorte@slaebaekgaard.dk;01/09 - 2016;31/05 - 2019;0;Poul Arne Pedersen;14620;Produktion af slagtesvin
17475878;1021990856;False;Kildegaard;Stenoddenvej 23;5700;Svendborg;True;23718115;dorte@slaebaekgaard.dk;01/09 - 2016;31/05 - 2019;;Poul Arne Pedersen;14610;Avl af smågrise
17475878;1021273569;False;Klimastald Landlyst, Snarup;Snarupvejen 18;5750;Ringe;True;23718115;dorte@slaebaekgaard.dk;01/10 - 2015;28/02 - 2019;0;;14610;Avl af smågrise
17475878;1019940647;False;Klimastald Regstrup;Regstrupvej 45;5800;Nyborg;False;23718115;dorte@slaebaekgaard.dk;01/12 - 2014;27/11 - 2016;;Niels Erik Hedeager;14610;Avl af smågrise
17475878;1019426714;False;Kokkenborg Sostald;Pavegyden 1A;5771;Stenstrup;False;63908115;dorte@slaebaekgaard.dk;01/06 - 2014;;10-19;;14610;Avl af smågrise
17475878;1001295218;True;JENS HIMMELSTRUP;Assensvej 9A;5771;Stenstrup;False;62263460;jens@slaebaekgaard.dk;23/12 - 1993;;10-19;;14610;Avl af smågrise
17475878;1019426730;False;Sundshøj Møllegård - Slagtesvin;Hovedvejen 72;5771;Stenstrup;False;23718115;dorte@slaebaekgaard.dk;01/06 - 2014;;;;14610;Avl af smågrise
18443775;1003440185;True;SVEN AGERGAARD;Nr. Vejenvej 10;7400;Herning;False;97164488;;30/04 - 1995;;10-19;;14610;Avl af smågrise
62716851;1002158343;True;Carsten Flædekær;Langegyde 16;5631;Ebberup;False;64741336;;01/07 - 1983;;5-9;;14610;Avl af smågrise
16494585;1001108633;True;FRANS MØLLER;Smedebjergevej 75;7980;Vils;False;97767156;;06/11 - 1992;;1;;14610;Avl af smågrise
15107677;1000861426;True;GÅRRDEJER LARS KRISTEN KUDAHL;Gundestrupvej 10;8960;Randers SØ;False;86494310;;01/06 - 1991;;5-9;;14610;Avl af smågrise
28429703;1011209072;True;Jens Jørgen Lex v/ Jens Jørgen Enemærke L Lex;Ingeborg Skeels Vej 47;9330;Dronninglund;False;;;15/03 - 2005;;2-4;;14610;Avl af smågrise
21886408;1006322273;True;BLOMSTERGÅRDEN V/HENRIK OVERBY CHRISTENSEN;Åsendrupvej 71;9480;Løkken;True;40270331;bhoc@blomstergaarden.net;01/08 - 1999;;5-9;;14610;Avl af smågrise
11250203;1000205948;True;PER HESSELDAL HANSEN;Bystævnevej 25;5610;Assens;False;64713377;;15/03 - 1985;;2-4;;14610;Avl af smågrise
17768905;1009276102;False;ØSTERSKOVGÅRD V/ANDERS MOSEHOLT;Tornsbjergvej 3;8350;Hundslund;False;86531023;;01/08 - 2002;31/12 - 2005;;;11110;Kornavl
17768905;1001356201;True;Østerskovgård v/Anders Moseholt;Tornsbjergvej 3;8350;Hundslund;False;86531023;;01/01 - 1994;;10-19;;14610;Avl af smågrise
17102397;1001222916;True;LANDBRUG V/KARSTEN B NIELSEN;Terpvej 9;6740;Bramming;False;75173085;;15/07 - 1993;;5-9;;14610;Avl af smågrise
27374182;1010133315;True;Landbrug v/Niels Andersen;Vanggårdsvej 13;9700;Brønderslev;False;98838087;;01/01 - 2003;;10-19;;14610;Avl af smågrise
10252407;1000043548;True;OLE BROHOLM ANDERSEN;Blakshøjgårdvej 8;9900;Frederikshavn;False;98486033;;01/06 - 1986;;5-9;;14610;Avl af smågrise
10262275;1000045394;True;GDR HENRY JENSEN;Brogårdvej 1;7490;Aulum;False;97476076;;01/06 - 1984;;2-4;;14610;Avl af smågrise
19882845;1004033408;True;KLEJSTRUPGÅRD V/HENRIK ØSTER;Sildeballe 8;8305;Samsø;False;86592711;;15/03 - 1997;;0;;14610;Avl af smågrise
25575342;1007864031;True;Michael Bosebjerg Jensen;Aggersvoldvej 30;4440;Mørkøv;False;59265020;;01/07 - 2000;;10-19;;14610;Avl af smågrise
38430637;1022209600;True;Humleballegaard I/S;Reballevej 1;8700;Horsens;True;20148885;pep@humleballegaard.dk;16/05 - 2017;;2-4;"Poul Erik &amp; Kenneth Lyngby Pedersen";14610;Avl af smågrise
25017439;1007220088;True;Mikael B Kristensen;Harringhedevej 6;7752;Snedsted;False;97936584;harringgaard@mail.dk;15/07 - 1999;;10-19;;14610;Avl af smågrise
33603509;1016833203;True;Flemming Broholm Hansen;Åvej 6;5550;Langeskov;False;20619853;flemming@aagaarden.com;29/04 - 2011;;2-4;;14610;Avl af smågrise
17754734;1001353020;True;KAJ GUNNAR JESSEN NIELSEN;Enslevvej 45;8881;Thorsø;False;;mariannegaba@hotmail.com;29/03 - 1994;;0;;14610;Avl af smågrise
68964652;1002284933;True;LANDBRUGER JENS BRØDBÆK PEDERSEN;Kragelundvej 7;7830;Vinderup;False;21641812;jens.pe@gmail.com;01/04 - 1982;;0;;14610;Avl af smågrise
10069637;1005282852;False;GÅRDEJER JENS JØRGEN R LAURSEN; 10B;9999;Ukendt;False;;;01/03 - 1984;30/06 - 1984;;;980000;Uoplyst
10069637;1000012846;True;GÅRDEJER JENS JØRGEN R LAURSEN;Fjordvej 10B;8950;Ørsted;False;86485235;;01/07 - 1984;;0;;14610;Avl af smågrise
41232919;1025656403;True;Skovdallund;Skovdalvej 7;7430;Ikast;True;;johan@skovdallund.dk;01/01 - 2020;;-;Johan Schmidt Johansen;14610;Avl af smågrise
78035528;1002537402;True;OVE KRISTENSEN;Birkemosevej 4;6933;Kibæk;False;97196431;;01/01 - 1982;;0;;14610;Avl af smågrise
26246318;1008685009;True;Jens Jørgen Kjeldsen;Slevadvej 3;6560;Sommersted;False;;;01/10 - 2001;;0;;14610;Avl af smågrise
21139939;1004726051;True;KNUD RASMUSSEN;Regissevej 16;5853;Ørbæk;False;65331313;;01/07 - 1998;;0;;14610;Avl af smågrise
71844218;1002355404;True;KARL RASMUSSEN;Krattet 12;7442;Engesvang;False;86865473;;11/01 - 1978;;0;;14610;Avl af smågrise
78173718;1002542235;True;ARNE CHRISTENSEN;Klebækvej 42;6580;Vamdrup;False;75582592;;01/01 - 1983;;1;;14610;Avl af smågrise
35063900;1018661302;True;Bo Glerup;Møsvråvej 43;6051;Almind;True;40931041;bygholmgaard@mail.tele.dk;01/08 - 2013;;0;;14610;Avl af smågrise
10048141;1000009299;True;CHR JØRGENSEN;Nørskov 15;6200;Aabenraa;False;74680239;;01/02 - 1973;;0;;14610;Avl af smågrise
76260516;1002485508;True;KNUD ERIK OLSSON;Nørre Krak 1;3790;Hasle;False;56969034;smedegaard@plakaten.dk;01/01 - 1982;;0;;14610;Avl af smågrise
82428054;1006877791;False;GÅRDEJER HENRIK NIELSEN; 12;9999;Ukendt;False;;;01/04 - 1985;31/07 - 1985;;;980000;Uoplyst
82428054;1002646251;True;GÅRDEJER HENRIK NIELSEN;Søndermarken 12;7860;Spøttrup;False;97561641;sondermarken12@hotmail.com;01/08 - 1985;;0;;14610;Avl af smågrise
42037915;1001819581;True;FREDE HVAM;Mausingvej 28;8620;Kjellerup;False;86888116;;01/01 - 1973;;0;;14610;Avl af smågrise
17921371;1001389757;True;STEEN TØTTERUP MOGENSEN;Bakkedalvej 10;7790;Thyholm;False;97872053;;19/05 - 1994;;0;;14610;Avl af smågrise
19921603;1004054555;True;IB HANSEN;Fuglsangsvej 4;8300;Odder;False;86551070;;01/04 - 1997;;0;;14610;Avl af smågrise
77042016;1002509383;True;IBSENSEJE V/BO IBSEN;Nødagervej 69;8560;Kolind;False;86363154;;01/06 - 1984;;0;;14610;Avl af smågrise
38478877;1022264547;True;Landmand Kenneth Sørensen;Huskærvej 4;9440;Aabybro;True;;fam.soerensen-gjoel@privat.dk;01/01 - 2017;;0;;14610;Avl af smågrise
39790157;1001787352;True;GÅRDEJER LEIF NØRSKOV NIELSEN;Brokhusvej 9;8620;Kjellerup;False;86880925;;01/03 - 1982;;0;;14610;Avl af smågrise
14833781;1000813876;True;KAUERGÅRD JØRGEN S RASK;Over Kærsholm Vej 4;8620;Kjellerup;False;86880010;;31/12 - 1990;;10-19;;14610;Avl af smågrise
25722027;1008030207;True;Benny Hansen;Munklindevej 11;7441;Bording;False;;;03/11 - 2000;;0;;14610;Avl af smågrise
10020573;1000004121;True;PER NORDTORP;Gultvedholm 1;5772;Kværndrup;False;62271403;;01/07 - 1985;;5-9;;14610;Avl af smågrise
34173885;1017527114;True;Hinrichsen Svinebrug I/S;Tanderupkærvej 21;7400;Herning;False;97164007;seh@newmail.dk;01/03 - 2012;;1;;14610;Avl af smågrise
19849686;1004016949;True;LL MYREGÅRD V/JESPER MARKER;Hegnedevejen 22;3720;Aakirkeby;False;56978257;;01/01 - 1997;;2-4;;14610;Avl af smågrise
10165466;1007866654;True;Kristian Færk Laursen;Jebjerggårdvej 23;7870;Roslev;False;23462023;;01/07 - 2000;;2-4;;14610;Avl af smågrise
17790277;1001360452;True;JENS ULRIK LARSEN;Møllevænget 10;5932;Humble;False;62571560;;01/04 - 1994;;5-9;;14610;Avl af smågrise
85085611;1002711113;True;EGON FRANDSEN MØLLER;Strædet 38;7990;Øster Assels;False;97764277;;26/08 - 1977;;5-9;;14610;Avl af smågrise
27161626;1009875065;True;Claus Vestergaard;Tinghøjvej 3;6920;Videbæk;False;;;01/07 - 2003;;2-4;;14610;Avl af smågrise
13155933;1005563516;False;ANDERS JEPPESEN; 20;9999;Ukendt;False;;;01/01 - 1988;31/03 - 1988;;;980000;Uoplyst
13155933;1000510656;True;ANDERS JEPPESEN;Kærumvej 20;5610;Assens;False;64712266;;01/04 - 1988;;2-4;;14610;Avl af smågrise
25872827;1008251807;True;"Randi Gaarde Hansen&amp; Jan Jørgensen";Gråstenvej 61;6200;Aabenraa;False;74686389;randi.gaarde.hansen@mail.dk;01/02 - 2001;;2-4;;14610;Avl af smågrise
19475980;1003834185;True;KIM KIRKEBY;Feldevej 1;7830;Vinderup;False;97440050;post@feldevej.dk;01/07 - 1996;;2-4;;14610;Avl af smågrise
77267514;1002515710;True;I/S FAURGAARD;Favrgaardsvej 30;8300;Odder;False;;;01/03 - 1985;;5-9;;14610;Avl af smågrise
55547912;1002035543;True;GÅRDEJER GUNNAR CHRISTIAN MIKKELSEN;Amtoftvej 2;7742;Vesløs;False;97993526;;01/02 - 1976;;5-9;;14610;Avl af smågrise
27173632;1009889406;True;Sdr Krogsdam v/Jens Michaelsen;Krogsdamvej 45;9352;Dybvad;False;98864780;;01/01 - 2003;;2-4;;14610;Avl af smågrise
14364374;1019574160;False;Fru Møllers Mølleri, restauranten;bjeragervej 35;8300;Odder;False;86545416;bjeragerhougaard@tdcspace.dk;28/07 - 2014;30/04 - 2015;1;bjeragervej 35;561010;Restauranter
14364374;1019210770;False;Fru Møllers Mølleri;Bjeragervej 35;8300;Odder;False;86545416;;13/03 - 2014;;1;;106100;Fremstilling af mølleriprodukter
14364374;1019210797;False;Fru Møllers Slagteri;Bjeragervej 35;8300;Odder;False;86545416;;13/03 - 2014;;2-4;;472200;Slagter- og viktualieforretninger
14364374;1000729779;True;BJERAGER HOVGÅRD V/BODIL OG KIM MØLLER;Bjeragervej 35;8300;Odder;False;86545416;;15/07 - 1990;;20-49;;14610;Avl af smågrise
14364374;1019210827;False;Fru Møllers Gårdbutik;Bjeragervej 35;8300;Odder;False;86545416;;13/03 - 2014;;2-4;;471110;Købmænd og døgnkiosker
36378980;1019988429;True;Jørn Degn Pedersen;Korning Nørremark 35;8700;Horsens;False;;joern@aagaard-is.dk;01/01 - 2015;;2-4;;14610;Avl af smågrise
36168927;1019833727;True;Peder Pedersen;Kragemosevej 7;5683;Haarby;False;64771805;pederpedersen@dlgtele.dk;01/01 - 2015;;5-9;;14610;Avl af smågrise
41221720;1025642291;True;Jens Jørn Johnsen;Skovby Skovvej 3;6500;Vojens;True;21408266;skovbyskovvej@hotmail.com;01/01 - 2020;;-;;14610;Avl af smågrise
36272678;1020002383;True;Breinholt I/S;Bredvigvej 24;7490;Aulum;True;29828773;breinholt.opf@gmail.com;01/01 - 2015;;1;;14610;Avl af smågrise
20698632;1001645482;True;St. Bakkegård V/Jørn Erik Koefoed;Søndre Landevej 90;3720;Aakirkeby;False;56972355;;01/07 - 1970;;2-4;;14610;Avl af smågrise
32634478;1015798080;True;Marianelyst v/Martin Kjær Axel;Gårsdalvej 35;8800;Viborg;False;28222219;martinfreshaxel@yahoo.com;01/01 - 2010;;2-4;;14610;Avl af smågrise
17489437;1001298096;True;GRANGÅRDEN V/POUL ERIK GINNERUP;Grandgaardsvej 104;9620;Aalestrup;False;98649364;;01/01 - 1994;;5-9;;14610;Avl af smågrise
38269178;1025081761;False;Vanggården;Landevejen 115;5883;Oure;True;20465358;;30/09 - 2019;;;Landevejen 115;14610;Avl af smågrise
38269178;1022031135;True;Vanggården;Højskolevej 23;5882;Vejstrup;False;;llindholmc@hotmail.com;01/01 - 2017;;5-9;Lau Lindholm Christiansen;14610;Avl af smågrise
27057098;1009750467;False;Landmand Lars Olsen;Louisendalvej 5;9240;Nibe;False;;;01/01 - 2003;01/01 - 2003;;Louisendal;13000;Planteformering
27057098;1001336068;True;Landmand Lars Olsen;Louisendalvej 5;9240;Nibe;False;98669012;;31/12 - 1993;;2-4;;14610;Avl af smågrise
38462458;1022241237;True;Jesper Vodder;Randerupvej 38;6780;Skærbæk;True;25525062;jesper_vodder@hotmail.com;01/03 - 2017;;2-4;;14610;Avl af smågrise
13510199;1000577567;True;LANDMAND LAURITZ LAURITZEN;Hjortlundvej 104;6771;Gredstedbro;False;75437117;pedersminde@pc.dk;01/08 - 1989;;2-4;;14610;Avl af smågrise
17278770;1001257285;True;LANDBRUG BRIAN HOLM;Ulvehøjvej 1;6650;Brørup;False;75388041;;01/10 - 1993;;10-19;;14610;Avl af smågrise
29660263;1001853192;True;Lillemosegård I/S v/Lars Aage Larsen og Lars Trankjær Larsen;Nederbyvej 23;5800;Nyborg;False;65361573;;03/07 - 1967;;2-4;;14610;Avl af smågrise
28072058;1001624384;True;GÅRDEJER SVEND ROMVIG KRISTENSEN;Helstrupvej 53;7400;Herning;False;97168595;;20/03 - 1987;;2-4;;14610;Avl af smågrise
21261297;1004804793;True;JENS PETER MUNK LAURITSEN;Bråddenhøjvej 8A;8860;Ulstrup;False;86463529;;13/11 - 1998;;10-19;;14610;Avl af smågrise
18062909;1001422624;True;CLAUS BRUUN JØRGENSEN;Gårdebymarkvej 6;6360;Tinglev;False;74642950;;01/09 - 1994;;10-19;;14610;Avl af smågrise
84085928;1002686960;True;GDR SEJER MORTENSEN;Hjortsvang Møllevej 2;7160;Tørring;False;75676299;flengegaard@flengegaard.dk;03/06 - 1977;;2-4;;14610;Avl af smågrise
25633725;1001784997;True;Finn Madsen;Skovhusvej 15;8762;Flemming;False;75674081;;01/11 - 2000;;0;;14610;Avl af smågrise
17606085;1001322378;True;MOGENS KREJBJERG MADSEN;Grønsigvej 6;6880;Tarm;False;97373730;;01/02 - 1994;;0;;14610;Avl af smågrise
74322212;1006795923;False;HELGE JØRGENSEN; 128;9999;Ukendt;False;;;31/12 - 1983;31/12 - 1983;;;980000;Uoplyst
74322212;1002427886;True;HELGE JØRGENSEN;Kallerupvej 128;4400;Kalundborg;False;59508126;;01/01 - 1984;;0;;14610;Avl af smågrise
12137702;1000337576;True;GÅRDEJER SØREN SØRENSEN;Truevej 24;9550;Mariager;False;86478142;;01/11 - 1986;;2-4;;14610;Avl af smågrise
14595481;1000769807;True;MEINER NØRGÅRD;Søndenom 9;7990;Øster Assels;False;97764407;;01/08 - 1990;;0;;14610;Avl af smågrise
14946640;1000833553;True;JENS KNUDSEN;Tranemarken 2;7860;Spøttrup;False;97568094;roesdal@fibermail.dk;10/03 - 1991;;0;;14610;Avl af smågrise
10233399;1000040173;True;JENS PETERSEN;Wolffsgårdsvej 8;6310;Broager;False;74441672;;01/05 - 1986;;0;;14610;Avl af smågrise
11916198;1000298729;True;CARSTEN JOHANNES GRYSBÆK;Fabjergvej 164;7620;Lemvig;False;;grysbak@grysbak.dk;15/07 - 1986;;0;;14610;Avl af smågrise
12728085;1000435843;True;TAGE BRANDT JENSEN;Mølstedvej 7;7480;Vildbjerg;False;97131389;;02/01 - 1986;;0;;14610;Avl af smågrise
13977399;1009465800;False;GÅRDEJER ALLAN LARSEN;Lundbæksvej 3;4200;Slagelse;False;;;01/04 - 1975;01/04 - 1975;;;980000;Uoplyst
13977399;1000659726;True;GÅRDEJER ALLAN LARSEN;Lundbæksvej 3;4200;Slagelse;False;58584195;;01/04 - 1975;;0;;14610;Avl af smågrise
14810595;1000809844;True;HANS EJNER KORTBÆK BERTELSEN;Mariesmindevej 7;7970;Redsted M;False;97762075;;01/01 - 1991;;0;;14610;Avl af smågrise
27119794;1009826668;True;Daulundgård v/Anders Bie Rasmussen;Spettrupvej 20;8722;Hedensted;False;75630016;;11/04 - 2003;;0;;14610;Avl af smågrise
74833616;1002441838;True;ERIK RASMUSSEN;Himmestrupvej 29;8850;Bjerringbro;False;86686280;;15/04 - 1971;;0;;14610;Avl af smågrise
15657049;1009007926;False;GÅRDEJER JOHN LANGDAHL;Gunderuplundvej 10;8370;Hadsten;False;;;01/03 - 2002;01/03 - 2002;;;12300;Dyrkning af citrusfrugter
15657049;1005750219;False;GÅRDEJER JOHN LANGDAHL; 11E;9999;Ukendt;False;;;01/11 - 1991;31/12 - 1998;;;980000;Uoplyst
15657049;1004846046;True;GÅRDEJER JOHN LANGDAHL;Gunderuplundvej 10;8370;Hadsten;False;86989716;;01/01 - 1999;;0;;14610;Avl af smågrise
81926611;1010042913;False;ULRIK LYNGE ANDERSEN;Bonnesigvej 21;7600;Struer;False;;;01/09 - 2003;01/09 - 2003;5-9;;12300;Dyrkning af citrusfrugter
81926611;1002632718;True;ULRIK LYNGE ANDERSEN;Bonnesigvej 21;7600;Struer;False;96857080;;01/08 - 1977;;0;;14610;Avl af smågrise
77853510;1009536600;False;ASTRUP GODS V/HENRIK SCHRØDER;Astrupvej 11;4450;Jyderup;False;;;01/01 - 1981;30/06 - 1985;;;980000;Uoplyst
77853510;1003194703;False;CIVILØKONOM HENRIK SCHRØDER;Emdrupvej 26;2100;København Ø;False;;;01/07 - 1985;31/12 - 2002;;;702040;Udlejning af erhvervsejendomme
77853510;1003194715;True;ASTRUP GODS V/HENRIK SCHRØDER;Astrupvej 11;4450;Jyderup;False;59276285;;01/01 - 1985;;5-9;;14610;Avl af smågrise
10589584;1000102345;True;Claus Tingleff Skerrildgaard;Lhombrevej 4;8783;Hornsyld;False;75687895;;01/07 - 1985;;0;;14610;Avl af smågrise
33455216;1001705286;True;MOGENS JACOBSEN;Elkjærvej 11;8543;Hornslet;False;86994352;;01/07 - 1970;;1;;14610;Avl af smågrise
35590609;1019075458;True;Kærsgård v/Poul Jørgensen;Svendborgvej 470;5260;Odense S;False;;poulhoejgaard64@gmail.com;01/01 - 2014;;1;;14610;Avl af smågrise
28913265;1002866498;True;Rene Storm;Hundstrupvej 38;5771;Stenstrup;False;51513265;magrethedal@mail.dk;15/07 - 1984;;0;;14610;Avl af smågrise
35273115;1018901508;True;Annebjerggaard;Uglestrup Gade 17;4060;Kirke Såby;True;;annebjerggaard@mail.tele.dk;01/01 - 2014;;0;;14610;Avl af smågrise
11928188;1000300633;True;Jens Steffansen;Husbondvej 61;8850;Bjerringbro;False;86682726;tindsminde@yahoo.com;01/04 - 1985;;1;;14610;Avl af smågrise
80753519;1002605178;True;IB MØLSTED IBSEN;Gyvelvej 2;7361;Ejstrupholm;False;;ibmibsen@gmail.com;01/07 - 1976;;0;;14610;Avl af smågrise
20555742;1004377105;True;NIELS DAMGAARD;Bondesvadvej 202;8300;Odder;False;;;01/01 - 1998;;0;;14610;Avl af smågrise
69076556;1002288009;True;LANDBRUGER OLE BLÆSBJERG KIRKEBY;Brørupvænget 11;7650;Bøvlingbjerg;False;97885506;kirkeby@agropartnere.dk;01/11 - 1983;;5-9;;14610;Avl af smågrise
20927941;1002702188;True;SVINEAVL V/ERIK STAUN;Sønderholm Hedevej 27;9240;Nibe;False;98341130;;01/12 - 1976;;5-9;;14610;Avl af smågrise
84730513;1002702516;True;GÅRDEJER PETER PEDERSEN;Sjørupgårdvej 9;8581;Nimtofte;False;86398425;;06/08 - 1976;;5-9;;14610;Avl af smågrise
15729392;1000968192;True;GÅRDEJER JAN SVENDSEN;Bredlundvej 5;5492;Vissenbjerg;False;64472797;;10/12 - 1991;;0;Koborggård;14610;Avl af smågrise
16589640;1001125542;True;TAULGAARD JENS CHR HEDEGAARD;Storhedevejen 45;8850;Bjerringbro;False;86686005;;01/08 - 1992;;0;;14610;Avl af smågrise
33022654;1001698903;True;GÅRDEJER TORBEN JØRGENSEN;Videbæksvej 5;4690;Haslev;True;56326503;;01/07 - 1986;;0;Emborggård;14610;Avl af smågrise
11979688;1000309575;True;JOHAN SVANE JØRGENSEN;Dueholmvej 11;8723;Løsning;False;75652453;;01/07 - 1984;;0;;14610;Avl af smågrise
17717898;1001345303;True;Lundager v/Henrik Jakobsen;Væggerskildevej 38;6920;Videbæk;False;97173237;;01/04 - 1994;;0;;14610;Avl af smågrise
87730050;1002777673;True;GÅRDEJER FRODE STENILD JENSEN;Trehøjevej 3;9500;Hobro;False;98548390;;01/01 - 1974;;0;;14610;Avl af smågrise
17485741;1008721986;True;KENNETH H. CLAUSEN;Vibøgevej 34;6470;Sydals;False;74404399;;01/10 - 2001;;0;;14610;Avl af smågrise
19478874;1003834860;True;I/S LINDHOLM V/JENS OG LAURITS BECH MEHLSEN;Stensagervej 19;7900;Nykøbing M;False;97740106;;01/08 - 1996;;5-9;;14610;Avl af smågrise
10218519;1026089340;False;Dødsboet efter Gårdejer Ivar Kjær;Furvej 22;7800;Skive;False;;;05/07 - 2020;;;Henrik Frier;14610;Avl af smågrise
27995500;1010808983;True;Voldstedgård v/Torben Klogborg;Koldingvej 3C;6630;Rødding;False;;klogborg@mail.tele.dk;01/04 - 2004;;0;;14610;Avl af smågrise
82392718;1002645218;True;GDR ARNE GELLERT;Favstrupvej 100;6100;Haderslev;False;74566508;;01/06 - 1976;;0;;14610;Avl af smågrise
45388956;1006569348;False;LANDMAND PER ELTVED; 37;9999;Ukendt;False;;;01/01 - 1984;31/12 - 1994;;;980000;Uoplyst
45388956;1003434629;True;LANDMAND PER ELTVED;Sakstrupvej 27;9800;Hjørring;False;98949836;eltvedgaard@c.dk;01/01 - 1995;;5-9;;14610;Avl af smågrise
76421528;1002490172;True;ERLING WESTPHAL;Hovedvejen 9;5771;Stenstrup;False;62262037;;15/08 - 1975;;1;Mosegården Kirkeby;14610;Avl af smågrise
65147955;1002202090;True;GÅRDEJER PETER FREDSLUND;Herredsfogedvej 13;6630;Rødding;False;74845305;;01/07 - 1975;;0;;14610;Avl af smågrise
85837613;1002731549;True;PETER MØLGAARD;Holtvej 1;7400;Herning;False;97149465;;01/11 - 1977;;0;;14610;Avl af smågrise
25479084;1007752233;True;Ole Skaarup Nielsen;Orte Byvej 24;5560;Aarup;False;64451088;;01/07 - 2000;;0;;14610;Avl af smågrise
77801715;1002530500;True;GRD HENRIK FRANDSEN;Rømøvej 88;6780;Skærbæk;False;74752089;hhf@post12.tele.dk;01/04 - 1985;;0;;14610;Avl af smågrise
13027374;1000486659;True;GEORG WIBE NIELSEN;Rønnevej 109;3700;Rønne;False;56972146;;01/07 - 1985;;0;;14610;Avl af smågrise
97324050;1002867019;True;LANDMAND GUDRUN MARIE SCHMIDT CHRISTENSEN;Sundbrovej 69;5700;Svendborg;False;62226840;;15/03 - 1985;;0;;14610;Avl af smågrise
37936960;1021669926;True;Økogrisen v/ Helle og Per;Nørupvej 30;7321;Gadbjerg;True;;Bondemandper@gmail.com;01/08 - 2016;;0;;14610;Avl af smågrise
81299668;1002618535;True;GÅRDEJER JENS KRISTIAN LAVRSEN;Bollervej 24;8800;Viborg;False;86647347;;01/08 - 1973;;0;;14610;Avl af smågrise
38177362;1021919515;True;Niels Terkelsen;Hundelevvej 99;9480;Løkken;True;;Lotteogniels@live.dk;13/11 - 2016;;0;;14610;Avl af smågrise
19990095;1004084523;True;RAVNHOLTGÅRDV/TORBEN MØLLER;Tingvadvej 4;7130;Juelsminde;False;;;01/05 - 1997;;2-4;;14610;Avl af smågrise
78182415;1002542521;True;GÅRDEJER HANS GÆMELKE;Estruplundvej 51;8950;Ørsted;False;86485186;;08/07 - 1985;;1;;14610;Avl af smågrise
27808182;1010695941;True;Klaus Bjerre;Udsigten 2;7860;Spøttrup;False;;;01/07 - 2004;;5-9;Amtsvejen 17;14610;Avl af smågrise
37655112;1021395516;True;I/S Skerrildgaard;Lhombrevej 4;8783;Hornsyld;True;75687895;Skerrildgaard@c.dk;01/01 - 2016;;2-4;Claus Tingleff;14610;Avl af smågrise
19638340;1006091812;False;LARS SØSTED POULSEN; 105;9999;Ukendt;False;;;15/09 - 1996;15/02 - 1998;;;980000;Uoplyst
19638340;1004409619;True;LARS SØSTED POULSEN;Vejlevej 105;7300;Jelling;False;75871378;;16/02 - 1998;;2-4;;14610;Avl af smågrise
20780649;1008311931;False;ASKEDAL I/S;Rostvedvej 15;8410;Rønde;False;;;01/10 - 1999;01/10 - 1999;;;13000;Planteformering
20780649;1004503084;True;ASKEDAL I/S;Rostvedvej 15;8410;Rønde;False;40361547;peterskovgaard@godmail.dk;01/04 - 1998;;5-9;Peter og Tage Skovgaard Jensen;14610;Avl af smågrise
35743936;1019271516;True;Torben Bech Svane;Flintdalevej 14;9240;Nibe;True;23269071;torbenbechsvane@gmail.com;01/04 - 2014;;2-4;;14610;Avl af smågrise
27034888;1003970732;True;Allan Rønnow Nielsen;Ørrevej 36;7490;Aulum;False;;amoselund@mail.dk;03/01 - 1997;;5-9;;14610;Avl af smågrise
27034888;1026244184;False;Videbækvej 21;Videbækvej 21;7490;Aulum;True;40541829;;01/07 - 2020;;;;14610;Avl af smågrise
15901977;1000997796;True;LANDMAND OG UDLEJER PEER BOELT KRISTIANSEN;Holtevej 100;9700;Brønderslev;False;98837206;;01/03 - 1992;;2-4;;14610;Avl af smågrise
33320507;1016574003;True;Martin Ravn;Hvidemosevej 25;7830;Vinderup;False;;;01/01 - 2011;;5-9;;14610;Avl af smågrise
21613037;1005064619;False;BIRGITTE BORRISHOLT;Grønnerupvej 85;9640;Farsø;False;98636410;;01/04 - 1999;17/08 - 2000;;;11110;Kornavl
21613037;1007844804;True;Hedeagergård v/Birgitte Borrisholt;Grønnerupvej 85;9640;Farsø;False;98636410;;18/08 - 2000;;1;;14610;Avl af smågrise
19968294;1004076247;True;KLAUS REFSLUND HANSEN;Hjerpstedvej 7;6280;Højer;False;74789919;;01/05 - 1997;;10-19;;14610;Avl af smågrise
36624663;1020517685;True;Virkelyst Svineproduktion;Kildevej 10;7900;Nykøbing M;True;30565570;vanggaarden@hotmail.com;01/06 - 2015;;2-4;Tobias Dahl Andersen;14610;Avl af smågrise
14429077;1000741868;True;LANDMAND KAJ CHRISTENSEN;Tryvej 110;9750;Østervrå;False;98956002;;01/08 - 1990;;2-4;;14610;Avl af smågrise
13343047;1005577413;False;TORBEN JAKOBSEN; 15;9999;Ukendt;False;;;01/04 - 1985;31/01 - 1988;;;980000;Uoplyst
13343047;1000546129;True;TORBEN JAKOBSEN;Skovvej 15;4684;Holmegaard;False;55563146;;01/02 - 1988;;1;;14610;Avl af smågrise
17174843;1001237110;True;ULRIK POULSEN;Munklindevej 63;7441;Bording;False;97145902;;20/08 - 1993;;1;;14610;Avl af smågrise
10170257;1008243677;True;Landbrug/Thomas Christensen;Gellerup Skolevej 30;6800;Varde;False;53374203;;01/02 - 2001;;2-4;;14610;Avl af smågrise
14598944;1000770294;True;STEEN ØSTERHOLM HANSEN KARLSFELDT;Hovedgårdsvej 3;4850;Stubbekøbing;False;54442574;;01/10 - 1990;;5-9;;14610;Avl af smågrise
28060645;1010948653;True;Morten Nielsen;Allerupvej 16;5672;Broby;False;62631341;morten@hoejfynsgruppen.dk;01/11 - 2004;;5-9;;14610;Avl af smågrise
21568880;1005031367;False;TORBEN DEGN JENSEN;Ishøj Søndergade 19B;2635;Ishøj;False;;;10/04 - 1999;09/07 - 2001;;;11190;Agerbrug i øvrigt
21568880;1008543131;True;Landmand Torben Jensen;Stigbrovej 20;4652;Hårlev;False;43522227;;10/07 - 2001;;2-4;;14610;Avl af smågrise
17575589;1001316057;True;TORBEN JAKOBSEN;Horskærvej 51;8300;Odder;False;86551494;;28/12 - 1993;;10-19;;14610;Avl af smågrise
18671093;1003519617;True;LANDBRUG JESPER LUND JENSEN;Koldingvej 54;6600;Vejen;False;75588502;;01/08 - 1995;;2-4;;14610;Avl af smågrise
71458210;1002343900;True;KARL ERIK RINGIVE;Kalhavevej 53;7171;Uldum;False;75678995;;11/06 - 1979;;1;;14610;Avl af smågrise
26944708;1009618690;True;Kim Heiselberg;Nørhedevej 54;6880;Tarm;False;;;01/01 - 2003;;10-19;;14610;Avl af smågrise
28959478;1011704162;True;Gårdejer og Udlejer Morten Schnack;Nybrogaardsvej 59;9560;Hadsund;False;;;01/08 - 2005;;10-19;;14610;Avl af smågrise
17464930;1001292682;True;GÅRDEJER JOHN SCHOW MIKKELSEN KLINTEBYGAARD;Klintebyvejen 4;3730;Nexø;False;56492438;;01/07 - 1993;;5-9;;14610;Avl af smågrise
17114298;1001225496;True;BJARNE CLAUSEN;Præstegårdsvej 23;6780;Skærbæk;False;74754373;;02/08 - 1993;;0;;14610;Avl af smågrise
25448219;1007714129;True;Frank Hansen;Søby Midtvej 1;5985;Søby Ærø;False;62581616;;22/05 - 2000;;2-4;;14610;Avl af smågrise
11219411;1000201000;True;KNUD SØRENSEN RØDBRO;Christiansminde 11;9800;Hjørring;False;98999019;knudroedbro@gmail.com;03/07 - 1967;;2-4;;14610;Avl af smågrise
79086916;1002571013;True;GÅRDEJER STEEN BILDE;Hammelevvej 2;8500;Grenaa;False;86326683;;01/01 - 1984;;5-9;;14610;Avl af smågrise
31398657;1014409943;True;Jan og Johanne Jacobsen;Overgårdsvej 2;8970;Havndal;False;20810996;;01/04 - 2008;;10-19;;14610;Avl af smågrise
95756352;1006950515;False;OLE MOGENSEN; 15;9999;Ukendt;False;;;01/07 - 1985;31/03 - 1995;;;980000;Uoplyst
95756352;1003525860;True;OLE MOGENSEN;Møllerled 15;5400;Bogense;False;64861586;;01/04 - 1995;;2-4;;14610;Avl af smågrise
26733553;1009260249;True;I/S Lei Avnbølgård;Avnbølgårdvej 10;6400;Sønderborg;False;74651212;info@avnbolgaard.dk;01/01 - 2002;;5-9;;14610;Avl af smågrise
20554886;1017885711;False;Setsu-african art v/Karina JamillaHayat;Hvidovrevej 61B, 3. tv.;2650;Hvidovre;False;;;01/08 - 2006;01/08 - 2006;;;524830;Forhandlere af gaveartikler og brugskunst (gaveboder)
20554886;1004376778;True;DIRK NICO JYRGENSEN;Foverupvej 2;6230;Rødekro;False;74669816;;01/12 - 1997;;1;;14610;Avl af smågrise
18162687;1001443357;True;STOKKEBROGÅRDEN PETER BONNESEN;Stokkebrovej 5;5672;Broby;False;62631038;;01/11 - 1994;;1;;14610;Avl af smågrise
21869295;1005269585;True;IB ARPE;Valsømaglevej 61;4100;Ringsted;False;57529111;;01/07 - 1999;;2-4;;14610;Avl af smågrise
26734762;1009261628;True;Esben Bundgaard Christensen;Hvamvej 36;9620;Aalestrup;False;;;01/07 - 2002;;2-4;;14610;Avl af smågrise
27015107;1009702012;True;Langdalgård v/ Bjarne Kristensen;Gamstvej 8;6600;Vejen;False;;langdalgaard@gmail.com;01/01 - 2003;;2-4;;14610;Avl af smågrise
12706499;1000432571;True;ØRSLEVGÅRD V/GDR KAJ HASLING RASMUSSEN;Ottestrupvej 29;4100;Ringsted;False;56381709;;23/12 - 1988;;5-9;;14610;Avl af smågrise
17911384;1001387584;True;JØRGEN ANDREASEN;Råbjergvej 10;7200;Grindsted;False;75396110;;21/07 - 1994;;1;;14610;Avl af smågrise
